[ {"spaceTrack": {"CCSDS_OMM_VERS": "2.0", "COMMENT": "GENERATED VIA SPACE-TRACK.ORG API", "CREATION_DATE": "2020-08-23 15:16:09", "ORIGINATOR": "18 SPCS", "OBJECT_NAME": "STARLINK-1272", "OBJECT_ID": "2020-019AC", "CENTER_NAME": "EARTH", "REF_FRAME": "TEME", "TIME_SYSTEM": "UTC", "MEAN_ELEMENT_THEORY": "SGP4", "EPOCH": "2020-08-23 14:00:01.999872", "MEAN_MOTION": 15.05594744, "ECCENTRICITY": 0.0001113, "INCLINATION": 53.0084, "RA_OF_ASC_NODE": 233.1448, "ARG_OF_PERICENTER": 78.838, "MEAN_ANOMALY": 349.5465, "EPHEMERIS_TYPE": 0, "CLASSIFICATION_TYPE": "U", "NORAD_CAT_ID": 45386, "ELEMENT_SET_NO": 999, "REV_AT_EPOCH": 2494, "BSTAR": -0.0015873, "MEAN_MOTION_DOT": -0.00023339, "MEAN_MOTION_DDOT": 0, "SEMIMAJOR_AXIS": 6927.817, "PERIOD": 95.643, "APOAPSIS": 550.453, "PERIAPSIS": 548.911, "OBJECT_TYPE": "PAYLOAD", "RCS_SIZE": "LARGE", "COUNTRY_CODE": "US", "LAUNCH_DATE": "2020-03-18", "SITE": "AFETR", "DECAY_DATE": null, "DECAYED": 0, "FILE": 2807157, "GP_ID": 159942845, "TLE_LINE0": "0 STARLINK-1272", "TLE_LINE1": "1 45386U 20019AC  20236.58335648 -.00023339  00000-0 -15873-2 0  9991", "TLE_LINE2": "2 45386  53.0084 233.1448 0001113  78.8380 349.5465 15.05594744 24942"}, "version": "v1.0", "launch": "5eb87d43ffd86e000604b385", "longitude": -29.910593167426434, "latitude": 50.47969938602367, "height_km": 554.9078785689753, "velocity_kms": 7.590759662781878, "id": "5eed7715096e59000698576b"}, {"spaceTrack": {"CCSDS_OMM_VERS": "2.0", "COMMENT": "GENERATED VIA SPACE-TRACK.ORG API", "CREATION_DATE": "2020-08-23 17:26:13", "ORIGINATOR": "18 SPCS", "OBJECT_NAME": "STARLINK-1256", "OBJECT_ID": "2020-019AT", "CENTER_NAME": "EARTH", "REF_FRAME": "TEME", "TIME_SYSTEM": "UTC", "MEAN_ELEMENT_THEORY": "SGP4", "EPOCH": "2020-08-23 14:00:01.999872", "MEAN_MOTION": 15.05623434, "ECCENTRICITY": 0.0001435, "INCLINATION": 52.9995, "RA_OF_ASC_NODE": 223.1764, "ARG_OF_PERICENTER": 82.4111, "MEAN_ANOMALY": 355.9917, "EPHEMERIS_TYPE": 0, "CLASSIFICATION_TYPE": "U", "NORAD_CAT_ID": 45401, "ELEMENT_SET_NO": 999, "REV_AT_EPOCH": 176, "BSTAR": -0.0020763, "MEAN_MOTION_DOT": -0.00030437, "MEAN_MOTION_DDOT": 0, "SEMIMAJOR_AXIS": 6927.729, "PERIOD": 95.641, "APOAPSIS": 550.588, "PERIAPSIS": 548.6, "OBJECT_TYPE": "PAYLOAD", "RCS_SIZE": "LARGE", "COUNTRY_CODE": "US", "LAUNCH_DATE": "2020-03-18", "SITE": "AFETR", "DECAY_DATE": null, "DECAYED": 0, "FILE": 2807181, "GP_ID": 159962836, "TLE_LINE0": "0 STARLINK-1256", "TLE_LINE1": "1 45401U 20019AT  20236.58335648 -.00030437 +00000-0 -20763-2 0  9990", "TLE_LINE2": "2 45401 052.9995 223.1764 0001435 082.4111 355.9917 15.05623434001766"}, "version": "v1.0", "launch": "5eb87d43ffd86e000604b385", "longitude": -24.046997710610356, "latitude": 52.8163754024257, "height_km": 555.1436846958823, "velocity_kms": 7.590978059994062, "id": "5eed7715096e59000698576c"}, {"spaceTrack": {"CCSDS_OMM_VERS": "2.0", "COMMENT": "GENERATED VIA SPACE-TRACK.ORG API", "CREATION_DATE": "2020-08-23 15:16:09", "ORIGINATOR": "18 SPCS", "OBJECT_NAME": "STARLINK-1284", "OBJECT_ID": "2020-019AG", "CENTER_NAME": "EARTH", "REF_FRAME": "TEME", "TIME_SYSTEM": "UTC", "MEAN_ELEMENT_THEORY": "SGP4", "EPOCH": "2020-08-23 14:00:01.999872", "MEAN_MOTION": 15.05590678, "ECCENTRICITY": 0.0001115, "INCLINATION": 52.9989, "RA_OF_ASC_NODE": 233.1825, "ARG_OF_PERICENTER": 80.5981, "MEAN_ANOMALY": 293.7429, "EPHEMERIS_TYPE": 0, "CLASSIFICATION_TYPE": "U", "NORAD_CAT_ID": 45390, "ELEMENT_SET_NO": 999, "REV_AT_EPOCH": 2493, "BSTAR": -0.0017749, "MEAN_MOTION_DOT": -0.00026052, "MEAN_MOTION_DDOT": 0, "SEMIMAJOR_AXIS": 6927.83, "PERIOD": 95.643, "APOAPSIS": 550.467, "PERIAPSIS": 548.922, "OBJECT_TYPE": "PAYLOAD", "RCS_SIZE": "LARGE", "COUNTRY_CODE": "US", "LAUNCH_DATE": "2020-03-18", "SITE": "AFETR", "DECAY_DATE": null, "DECAYED": 0, "FILE": 2807159, "GP_ID": 159942619, "TLE_LINE0": "0 STARLINK-1284", "TLE_LINE1": "1 45390U 20019AG  20236.58335648 -.00026052  00000-0 -17749-2 0  9995", "TLE_LINE2": "2 45390  52.9989 233.1825 0001115  80.5981 293.7429 15.05590678 24938"}, "version": "v1.0", "launch": "5eb87d43ffd86e000604b385", "longitude": -82.50952514050712, "latitude": 16.256449618843643, "height_km": 549.5985786562769, "velocity_kms": 7.589889916145998, "id": "5eed7715096e59000698576d"}, {"spaceTrack": {"CCSDS_OMM_VERS": "2.0", "COMMENT": "GENERATED VIA SPACE-TRACK.ORG API", "CREATION_DATE": "2020-08-23 15:16:09", "ORIGINATOR": "18 SPCS", "OBJECT_NAME": "STARLINK-1285", "OBJECT_ID": "2020-019BC", "CENTER_NAME": "EARTH", "REF_FRAME": "TEME", "TIME_SYSTEM": "UTC", "MEAN_ELEMENT_THEORY": "SGP4", "EPOCH": "2020-08-23 14:00:01.999872", "MEAN_MOTION": 15.05599094, "ECCENTRICITY": 0.0001617, "INCLINATION": 53.0011, "RA_OF_ASC_NODE": 223.1738, "ARG_OF_PERICENTER": 76.5257, "MEAN_ANOMALY": 289.8902, "EPHEMERIS_TYPE": 0, "CLASSIFICATION_TYPE": "U", "NORAD_CAT_ID": 45410, "ELEMENT_SET_NO": 999, "REV_AT_EPOCH": 2479, "BSTAR": -0.0023431, "MEAN_MOTION_DOT": -0.00034272, "MEAN_MOTION_DDOT": 0, "SEMIMAJOR_AXIS": 6927.804, "PERIOD": 95.642, "APOAPSIS": 550.789, "PERIAPSIS": 548.549, "OBJECT_TYPE": "PAYLOAD", "RCS_SIZE": "LARGE", "COUNTRY_CODE": "US", "LAUNCH_DATE": "2020-03-18", "SITE": "AFETR", "DECAY_DATE": null, "DECAYED": 0, "FILE": 2807159, "GP_ID": 159942620, "TLE_LINE0": "0 STARLINK-1285", "TLE_LINE1": "1 45410U 20019BC  20236.58335648 -.00034272  00000-0 -23431-2 0  9996", "TLE_LINE2": "2 45410  53.0011 223.1738 0001617  76.5257 289.8902 15.05599094 24796"}, "version": "v1.0", "launch": "5eb87d43ffd86e000604b385", "longitude": -97.55150566121962, "latitude": 9.99614601248885, "height_km": 549.4097374692901, "velocity_kms": 7.589469696170412, "id": "5eed7715096e59000698576e"}, {"spaceTrack": {"CCSDS_OMM_VERS": "2.0", "COMMENT": "GENERATED VIA SPACE-TRACK.ORG API", "CREATION_DATE": "2020-08-23 22:46:10", "ORIGINATOR": "18 SPCS", "OBJECT_NAME": "STARLINK-1238", "OBJECT_ID": "2020-012BH", "CENTER_NAME": "EARTH", "REF_FRAME": "TEME", "TIME_SYSTEM": "UTC", "MEAN_ELEMENT_THEORY": "SGP4", "EPOCH": "2020-08-23 22:00:00.999936", "MEAN_MOTION": 15.05611123, "ECCENTRICITY": 0.000158, "INCLINATION": 52.9977, "RA_OF_ASC_NODE": 111.7013, "ARG_OF_PERICENTER": 93.534, "MEAN_ANOMALY": 319.2471, "EPHEMERIS_TYPE": 0, "CLASSIFICATION_TYPE": "U", "NORAD_CAT_ID": 45233, "ELEMENT_SET_NO": 999, "REV_AT_EPOCH": 2915, "BSTAR": -0.0015382, "MEAN_MOTION_DOT": -0.00022639, "MEAN_MOTION_DDOT": 0, "SEMIMAJOR_AXIS": 6927.767, "PERIOD": 95.642, "APOAPSIS": 550.726, "PERIAPSIS": 548.537, "OBJECT_TYPE": "PAYLOAD", "RCS_SIZE": "LARGE", "COUNTRY_CODE": "US", "LAUNCH_DATE": "2020-02-17", "SITE": "AFETR", "DECAY_DATE": null, "DECAYED": 0, "FILE": 2807313, "GP_ID": 159987548, "TLE_LINE0": "0 STARLINK-1238", "TLE_LINE1": "1 45233U 20012BH  20236.91667824 -.00022639  00000-0 -15382-2 0  9993", "TLE_LINE2": "2 45233  52.9977 111.7013 0001580  93.5340 319.2471 15.05611123 29159"}, "version": "v1.0", "launch": "5eb87d41ffd86e000604b383", "longitude": -178.31685508417175, "latitude": 38.63018712031655, "height_km": 552.1317935734796, "velocity_kms": 7.591083805481088, "id": "5eed7715096e59000698576f"}, {"spaceTrack": {"CCSDS_OMM_VERS": "2.0", "COMMENT": "GENERATED VIA SPACE-TRACK.ORG API", "CREATION_DATE": "2020-08-23 22:46:10", "ORIGINATOR": "18 SPCS", "OBJECT_NAME": "STARLINK-1263", "OBJECT_ID": "2020-019AX", "CENTER_NAME": "EARTH", "REF_FRAME": "TEME", "TIME_SYSTEM": "UTC", "MEAN_ELEMENT_THEORY": "SGP4", "EPOCH": "2020-08-23 22:00:00.999936", "MEAN_MOTION": 15.05578978, "ECCENTRICITY": 0.0001145, "INCLINATION": 53.0006, "RA_OF_ASC_NODE": 221.6758, "ARG_OF_PERICENTER": 86.3197, "MEAN_ANOMALY": 323.7996, "EPHEMERIS_TYPE": 0, "CLASSIFICATION_TYPE": "U", "NORAD_CAT_ID": 45405, "ELEMENT_SET_NO": 999, "REV_AT_EPOCH": 2484, "BSTAR": 0.0022768, "MEAN_MOTION_DOT": 0.00033048, "MEAN_MOTION_DDOT": 0, "SEMIMAJOR_AXIS": 6927.866, "PERIOD": 95.644, "APOAPSIS": 550.524, "PERIAPSIS": 548.937, "OBJECT_TYPE": "PAYLOAD", "RCS_SIZE": "LARGE", "COUNTRY_CODE": "US", "LAUNCH_DATE": "2020-03-18", "SITE": "AFETR", "DECAY_DATE": null, "DECAYED": 0, "FILE": 2807352, "GP_ID": 159988104, "TLE_LINE0": "0 STARLINK-1263", "TLE_LINE1": "1 45405U 20019AX  20236.91667824  .00033048  00000-0  22768-2 0  9991", "TLE_LINE2": "2 45405  53.0006 221.6758 0001145  86.3197 323.7996 15.05578978 24842"}, "version": "v1.0", "launch": "5eb87d43ffd86e000604b385", "longitude": -70.86291103579178, "latitude": 36.925980846119295, "height_km": 552.0411983532649, "velocity_kms": 7.590851153543214, "id": "5eed7715096e590006985770"}, {"spaceTrack": {"CCSDS_OMM_VERS": "2.0", "COMMENT": "GENERATED VIA SPACE-TRACK.ORG API", "CREATION_DATE": "2020-08-23 15:16:09", "ORIGINATOR": "18 SPCS", "OBJECT_NAME": "STARLINK-1274", "OBJECT_ID": "2020-019AD", "CENTER_NAME": "EARTH", "REF_FRAME": "TEME", "TIME_SYSTEM": "UTC", "MEAN_ELEMENT_THEORY": "SGP4", "EPOCH": "2020-08-23 14:00:01.999872", "MEAN_MOTION": 14.99079628, "ECCENTRICITY": 0.0001391, "INCLINATION": 53.0002, "RA_OF_ASC_NODE": 231.475, "ARG_OF_PERICENTER": 96.3358, "MEAN_ANOMALY": 21.9556, "EPHEMERIS_TYPE": 0, "CLASSIFICATION_TYPE": "U", "NORAD_CAT_ID": 45387, "ELEMENT_SET_NO": 999, "REV_AT_EPOCH": 2493, "BSTAR": 0.0010889, "MEAN_MOTION_DOT": 0.00013121, "MEAN_MOTION_DDOT": 0, "SEMIMAJOR_AXIS": 6947.875, "PERIOD": 96.058, "APOAPSIS": 570.707, "PERIAPSIS": 568.774, "OBJECT_TYPE": "PAYLOAD", "RCS_SIZE": "LARGE", "COUNTRY_CODE": "US", "LAUNCH_DATE": "2020-03-18", "SITE": "AFETR", "DECAY_DATE": null, "DECAYED": 0, "FILE": 2807157, "GP_ID": 159942602, "TLE_LINE0": "0 STARLINK-1274", "TLE_LINE1": "1 45387U 20019AD  20236.58335648  .00013121  00000-0  10889-2 0  9990", "TLE_LINE2": "2 45387  53.0002 231.4750 0001391  96.3358  21.9556 14.99079628 24930"}, "version": "v1.0", "launch": "5eb87d43ffd86e000604b385", "longitude": 31.092974147623593, "latitude": 46.471040148026916, "height_km": 573.8068051792616, "velocity_kms": 7.580103291165928, "id": "5eed7715096e590006985771"}]